{"type": "FeatureCollection", "features": [ {"type": "Feature", "properties": {"norad_id": 30208, "name": "FENGYUN 1C DEB", "group": "fengyun-1c-debris", "lat": -58.26005684383208, "lon": 159.9948366095235, "alt_km": 797.2127772032072, "timestamp": "2025-12-19T06:59:44.183241+00:00", "meta": {"OBJECT_NAME": "FENGYUN 1C DEB", "OBJECT_ID": "1999-025VR", "EPOCH": "2025-12-18T23:22:48.840960", "MEAN_MOTION": 14.23540147, "ECCENTRICITY": 0.0032984, "INCLINATION": 98.5616, "RA_OF_ASC_NODE": 353.7815, "ARG_OF_PERICENTER": 251.4766, "MEAN_ANOMALY": 162.6575, "EPHEMERIS_TYPE": 0, "CLASSIFICATION_TYPE": "U", "NORAD_CAT_ID": 30208, "ELEMENT_SET_NO": 999, "REV_AT_EPOCH": 97926, "BSTAR": 0.00038836048, "MEAN_MOTION_DOT": 8.46e-06, "MEAN_MOTION_DDOT": 0}, "tle": {"line1": "1 30208U 99025VR  25352.97417640  .00000846  00000+0  38836-3 0  9991", "line2": "2 30208  98.5616 353.7815 0032984 251.4766 162.6575 14.23540147979265"}}, "geometry": {"type": "Point", "coordinates": [159.9948366095235, -58.26005684383208]}}, {"type": "Feature", "properties": {"norad_id": 30209, "name": "FENGYUN 1C DEB", "group": "fengyun-1c-debris", "lat": -27.664983733261927, "lon": -5.443518921769875, "alt_km": 865.6964099539919, "timestamp": "2025-12-19T06:59:44.183252+00:00", "meta": {"OBJECT_NAME": "FENGYUN 1C DEB", "OBJECT_ID": "1999-025VS", "EPOCH": "2025-12-18T22:46:06.954240", "MEAN_MOTION": 14.12911152, "ECCENTRICITY": 0.00388365, "INCLINATION": 98.714, "RA_OF_ASC_NODE": 349.6113, "ARG_OF_PERICENTER": 220.7931, "MEAN_ANOMALY": 168.2571, "EPHEMERIS_TYPE": 0, "CLASSIFICATION_TYPE": "U", "NORAD_CAT_ID": 30209, "ELEMENT_SET_NO": 999, "REV_AT_EPOCH": 97294, "BSTAR": 0.0002970144, "MEAN_MOTION_DOT": 5.14e-06, "MEAN_MOTION_DDOT": 0}, "tle": {"line1": "1 30209U 99025VS  25352.94869160  .00000514  00000+0  29701-3 0  9990", "line2": "2 30209  98.7140 349.6113 0038836 220.7931 168.2571 14.12911152972942"}}, "geometry": {"type": "Point", "coordinates": [-5.443518921769875, -27.664983733261927]}}, {"type": "Feature", "properties": {"norad_id": 30210, "name": "FENGYUN 1C DEB", "group": "fengyun-1c-debris", "lat": -49.52290431181251, "lon": -147.77712012722483, "alt_km": 887.2595555982098, "timestamp": "2025-12-19T06:59:44.183262+00:00", "meta": {"OBJECT_NAME": "FENGYUN 1C DEB", "OBJECT_ID": "1999-025VT", "EPOCH": "2025-12-18T16:49:56.951904", "MEAN_MOTION": 14.08279762, "ECCENTRICITY": 0.00568907, "INCLINATION": 99.1898, "RA_OF_ASC_NODE": 42.5571, "ARG_OF_PERICENTER": 120.0551, "MEAN_ANOMALY": 359.4609, "EPHEMERIS_TYPE": 0, "CLASSIFICATION_TYPE": "U", "NORAD_CAT_ID": 30210, "ELEMENT_SET_NO": 999, "REV_AT_EPOCH": 96841, "BSTAR": 0.00041071118, "MEAN_MOTION_DOT": 6.67e-06, "MEAN_MOTION_DDOT": 0}, "tle": {"line1": "1 30210U 99025VT  25352.70135361  .00000667  00000+0  41071-3 0  9998", "line2": "2 30210  99.1898  42.5571 0056890 120.0551 359.4609 14.08279762968418"}}, "geometry": {"type": "Point", "coordinates": [-147.77712012722483, -49.52290431181251]}}, {"type": "Feature", "properties": {"norad_id": 30212, "name": "FENGYUN 1C DEB", "group": "fengyun-1c-debris", "lat": -34.570264042774795, "lon": 32.26536616684732, "alt_km": 839.6755031467173, "timestamp": "2025-12-19T06:59:44.183272+00:00", "meta": {"OBJECT_NAME": "FENGYUN 1C DEB", "OBJECT_ID": "1999-025VV", "EPOCH": "2025-12-18T14:29:46.565088", "MEAN_MOTION": 13.9705919, "ECCENTRICITY": 0.00970094, "INCLINATION": 99.4568, "RA_OF_ASC_NODE": 218.1536, "ARG_OF_PERICENTER": 221.2702, "MEAN_ANOMALY": 138.1099, "EPHEMERIS_TYPE": 0, "CLASSIFICATION_TYPE": "U", "NORAD_CAT_ID": 30212, "ELEMENT_SET_NO": 999, "REV_AT_EPOCH": 96307, "BSTAR": 0.0001356375, "MEAN_MOTION_DOT": 1.49e-06, "MEAN_MOTION_DDOT": 0}, "tle": {"line1": "1 30212U 99025VV  25352.60401117  .00000149  00000+0  13564-3 0  9995", "line2": "2 30212  99.4568 218.1536 0097009 221.2702 138.1099 13.97059190963078"}}, "geometry": {"type": "Point", "coordinates": [32.26536616684732, -34.570264042774795]}}, {"type": "Feature", "properties": {"norad_id": 30213, "name": "FENGYUN 1C DEB", "group": "fengyun-1c-debris", "lat": -80.74886616347413, "lon": 169.25785806251895, "alt_km": 822.7562812301376, "timestamp": "2025-12-19T06:59:44.183283+00:00", "meta": {"OBJECT_NAME": "FENGYUN 1C DEB", "OBJECT_ID": "1999-025VW", "EPOCH": "2025-12-18T16:50:32.929728", "MEAN_MOTION": 14.11607934, "ECCENTRICITY": 0.00721733, "INCLINATION": 99.1229, "RA_OF_ASC_NODE": 69.2413, "ARG_OF_PERICENTER": 227.2584, "MEAN_ANOMALY": 285.5225, "EPHEMERIS_TYPE": 0, "CLASSIFICATION_TYPE": "U", "NORAD_CAT_ID": 30213, "ELEMENT_SET_NO": 999, "REV_AT_EPOCH": 96599, "BSTAR": 0.0011488406, "MEAN_MOTION_DOT": 2.093e-05, "MEAN_MOTION_DDOT": 0}, "tle": {"line1": "1 30213U 99025VW  25352.70177002  .00002093  00000+0  11488-2 0  9992", "line2": "2 30213  99.1229  69.2413 0072173 227.2584 285.5225 14.11607934965991"}}, "geometry": {"type": "Point", "coordinates": [169.25785806251895, -80.74886616347413]}}, {"type": "Feature", "properties": {"norad_id": 30214, "name": "FENGYUN 1C DEB", "group": "fengyun-1c-debris", "lat": 0.7614511124889756, "lon": -113.41639539112614, "alt_km": 804.526575487911, "timestamp": "2025-12-19T06:59:44.183293+00:00", "meta": {"OBJECT_NAME": "FENGYUN 1C DEB", "OBJECT_ID": "1999-025VX", "EPOCH": "2025-12-18T22:11:35.838240", "MEAN_MOTION": 14.30972064, "ECCENTRICITY": 0.00204451, "INCLINATION": 98.7246, "RA_OF_ASC_NODE": 66.0986, "ARG_OF_PERICENTER": 25.6841, "MEAN_ANOMALY": 65.0194, "EPHEMERIS_TYPE": 0, "CLASSIFICATION_TYPE": "U", "NORAD_CAT_ID": 30214, "ELEMENT_SET_NO": 999, "REV_AT_EPOCH": 97655, "BSTAR": 0.0012755361, "MEAN_MOTION_DOT": 3.318e-05, "MEAN_MOTION_DDOT": 0}, "tle": {"line1": "1 30214U 99025VX  25352.92472035  .00003318  00000+0  12755-2 0  9990", "line2": "2 30214  98.7246  66.0986 0020445  25.6841  65.0194 14.30972064976557"}}, "geometry": {"type": "Point", "coordinates": [-113.41639539112614, 0.7614511124889756]}}, {"type": "Feature", "properties": {"norad_id": 30217, "name": "FENGYUN 1C DEB", "group": "fengyun-1c-debris", "lat": -7.572232018687145, "lon": 155.67536940596548, "alt_km": 840.7360924906206, "timestamp": "2025-12-19T06:59:44.183303+00:00", "meta": {"OBJECT_NAME": "FENGYUN 1C DEB", "OBJECT_ID": "1999-025WA", "EPOCH": "2025-12-18T21:42:22.001184", "MEAN_MOTION": 14.24842206, "ECCENTRICITY": 0.01407238, "INCLINATION": 98.4317, "RA_OF_ASC_NODE": 336.4333, "ARG_OF_PERICENTER": 81.9158, "MEAN_ANOMALY": 279.796, "EPHEMERIS_TYPE": 0, "CLASSIFICATION_TYPE": "U", "NORAD_CAT_ID": 30217, "ELEMENT_SET_NO": 999, "REV_AT_EPOCH": 98161, "BSTAR": 0.00020486221, "MEAN_MOTION_DOT": 4.89e-06, "MEAN_MOTION_DDOT": 0}, "tle": {"line1": "1 30217U 99025WA  25352.90442131  .00000489  00000+0  20486-3 0  9992", "line2": "2 30217  98.4317 336.4333 0140723  81.9158 279.7960 14.24842206981619"}}, "geometry": {"type": "Point", "coordinates": [155.67536940596548, -7.572232018687145]}}, {"type": "Feature", "properties": {"norad_id": 30218, "name": "FENGYUN 1C DEB", "group": "fengyun-1c-debris", "lat": 33.83512119266852, "lon": -91.04788067044278, "alt_km": 792.558713817376, "timestamp": "2025-12-19T06:59:44.183314+00:00", "meta": {"OBJECT_NAME": "FENGYUN 1C DEB", "OBJECT_ID": "1999-025WB", "EPOCH": "2025-12-18T05:14:14.517312", "MEAN_MOTION": 14.28872853, "ECCENTRICITY": 0.00708922, "INCLINATION": 98.9877, "RA_OF_ASC_NODE": 81.7565, "ARG_OF_PERICENTER": 238.3135, "MEAN_ANOMALY": 150.3932, "EPHEMERIS_TYPE": 0, "CLASSIFICATION_TYPE": "U", "NORAD_CAT_ID": 30218, "ELEMENT_SET_NO": 999, "REV_AT_EPOCH": 97187, "BSTAR": 0.0020912898, "MEAN_MOTION_DOT": 5.378e-05, "MEAN_MOTION_DDOT": 0}, "tle": {"line1": "1 30218U 99025WB  25352.21822358  .00005378  00000+0  20913-2 0  9996", "line2": "2 30218  98.9877  81.7565 0070892 238.3135 150.3932 14.28872853971870"}}, "geometry": {"type": "Point", "coordinates": [-91.04788067044278, 33.83512119266852]}}, {"type": "Feature", "properties": {"norad_id": 30221, "name": "FENGYUN 1C DEB", "group": "fengyun-1c-debris", "lat": 77.17721831446846, "lon": -54.822086711795386, "alt_km": 707.8790779118735, "timestamp": "2025-12-19T06:59:44.183324+00:00", "meta": {"OBJECT_NAME": "FENGYUN 1C DEB", "OBJECT_ID": "1999-025WE", "EPOCH": "2025-12-18T18:55:21.576288", "MEAN_MOTION": 14.45823566, "ECCENTRICITY": 0.01451527, "INCLINATION": 98.9561, "RA_OF_ASC_NODE": 80.7906, "ARG_OF_PERICENTER": 23.3978, "MEAN_ANOMALY": 337.373, "EPHEMERIS_TYPE": 0, "CLASSIFICATION_TYPE": "U", "NORAD_CAT_ID": 30221, "ELEMENT_SET_NO": 999, "REV_AT_EPOCH": 99488, "BSTAR": 0.00015301805, "MEAN_MOTION_DOT": 5.62e-06, "MEAN_MOTION_DDOT": 0}, "tle": {"line1": "1 30221U 99025WE  25352.78844417  .00000562  00000+0  15302-3 0  9999", "line2": "2 30221  98.9561  80.7906 0145152  23.3978 337.3730 14.45823566994886"}}, "geometry": {"type": "Point", "coordinates": [-54.822086711795386, 77.17721831446846]}}, {"type": "Feature", "properties": {"norad_id": 30222, "name": "FENGYUN 1C DEB", "group": "fengyun-1c-debris", "lat": 9.150299246671146, "lon": -152.06423418167117, "alt_km": 905.3479402842104, "timestamp": "2025-12-19T06:59:44.183334+00:00", "meta": {"OBJECT_NAME": "FENGYUN 1C DEB", "OBJECT_ID": "1999-025WF", "EPOCH": "2025-12-18T17:05:23.724096", "MEAN_MOTION": 14.04075255, "ECCENTRICITY": 0.00376207, "INCLINATION": 98.8404, "RA_OF_ASC_NODE": 25.9357, "ARG_OF_PERICENTER": 20.6027, "MEAN_ANOMALY": 102.7429, "EPHEMERIS_TYPE": 0, "CLASSIFICATION_TYPE": "U", "NORAD_CAT_ID": 30222, "ELEMENT_SET_NO": 999, "REV_AT_EPOCH": 96922, "BSTAR": 6.6517505e-05, "MEAN_MOTION_DOT": 6.3e-07, "MEAN_MOTION_DDOT": 0}, "tle": {"line1": "1 30222U 99025WF  25352.71208014  .00000063  00000+0  66518-4 0  9992", "line2": "2 30222  98.8404  25.9357 0037620  20.6027 102.7429 14.04075255969226"}}, "geometry": {"type": "Point", "coordinates": [-152.06423418167117, 9.150299246671146]}}]}